[{"OBJECT_NAME":"STARLINK-30959","OBJECT_ID":"2023-183F","EPOCH":"2026-03-09T23:17:23.328096","MEAN_MOTION":15.26773762,"ECCENTRICITY":0.00012731,"INCLINATION":43.003,"RA_OF_ASC_NODE":39.4885,"ARG_OF_PERICENTER":267.6758,"MEAN_ANOMALY":92.3948,"EPHEMERIS_TYPE":0,"CLASSIFICATION_TYPE":"U","NORAD_CAT_ID":58442,"ELEMENT_SET_NO":999,"REV_AT_EPOCH":12678,"BSTAR":-8.9464489e-5,"MEAN_MOTION_DOT":-2.661e-5,"MEAN_MOTION_DDOT":0},{"OBJECT_NAME":"ARIANE 5 R\/B","OBJECT_ID":"2019-049C","EPOCH":"2026-03-09T18:16:27.025824","MEAN_MOTION":3.09784071,"ECCENTRICITY":0.66975986,"INCLINATION":4.4423,"RA_OF_ASC_NODE":324.5392,"ARG_OF_PERICENTER":26.3779,"MEAN_ANOMALY":355.9893,"EPHEMERIS_TYPE":0,"CLASSIFICATION_TYPE":"U","NORAD_CAT_ID":44477,"ELEMENT_SET_NO":999,"REV_AT_EPOCH":6286,"BSTAR":0.0018687615,"MEAN_MOTION_DOT":0.00054772,"MEAN_MOTION_DDOT":-1.4474e-8}]
